[{"OBJECT_NAME":"STARLINK-30577","OBJECT_ID":"2023-158C","EPOCH":"2026-03-09T06:01:31.746432","MEAN_MOTION":15.2756656,"ECCENTRICITY":0.00013632,"INCLINATION":42.9982,"RA_OF_ASC_NODE":29.4411,"ARG_OF_PERICENTER":253.5054,"MEAN_ANOMALY":106.5648,"EPHEMERIS_TYPE":0,"CLASSIFICATION_TYPE":"U","NORAD_CAT_ID":58053,"ELEMENT_SET_NO":999,"REV_AT_EPOCH":13350,"BSTAR":-9.360613e-5,"MEAN_MOTION_DOT":-2.836e-5,"MEAN_MOTION_DDOT":0},{"OBJECT_NAME":"KUIPER-00184","OBJECT_ID":"2025-301G","EPOCH":"2026-03-09T22:00:01.999584","MEAN_MOTION":15.32782365,"ECCENTRICITY":0.00116958,"INCLINATION":51.8667,"RA_OF_ASC_NODE":64.5953,"ARG_OF_PERICENTER":53.2996,"MEAN_ANOMALY":333.7065,"EPHEMERIS_TYPE":0,"CLASSIFICATION_TYPE":"U","NORAD_CAT_ID":67139,"ELEMENT_SET_NO":999,"REV_AT_EPOCH":554,"BSTAR":-0.036844053,"MEAN_MOTION_DOT":-0.01088594,"MEAN_MOTION_DDOT":0}]
